{"type": "FeatureCollection", "features": [ {"type": "Feature", "properties": {"norad_id": 66578, "name": "STARLINK-35743", "group": "last-30-days", "lat": 37.1648569331875, "lon": -125.75783367985541, "alt_km": 408.7091510478558, "timestamp": "2025-12-14T20:40:30.515213+00:00", "meta": {"OBJECT_NAME": "STARLINK-35743", "OBJECT_ID": "2025-268X", "EPOCH": "2025-12-13T17:53:34.638720", "MEAN_MOTION": 15.50625412, "ECCENTRICITY": 0.00013233, "INCLINATION": 42.9997, "RA_OF_ASC_NODE": 115.215, "ARG_OF_PERICENTER": 330.5178, "MEAN_ANOMALY": 29.5607, "EPHEMERIS_TYPE": 0, "CLASSIFICATION_TYPE": "U", "NORAD_CAT_ID": 66578, "ELEMENT_SET_NO": 999, "REV_AT_EPOCH": 478, "BSTAR": 0.0024358562, "MEAN_MOTION_DOT": 0.00145485, "MEAN_MOTION_DDOT": 0}, "tle": {"line1": "1 66578U 25268X   25347.74553980  .00145485  00000+0  24359-2 0  9998", "line2": "2 66578  42.9997 115.2150 0001323 330.5178  29.5607 15.50625412  4784"}}, "geometry": {"type": "Point", "coordinates": [-125.75783367985541, 37.1648569331875]}}, {"type": "Feature", "properties": {"norad_id": 66579, "name": "STARLINK-35868", "group": "last-30-days", "lat": 36.66156495091495, "lon": -124.33240762817798, "alt_km": 409.32432645876634, "timestamp": "2025-12-14T20:40:30.515224+00:00", "meta": {"OBJECT_NAME": "STARLINK-35868", "OBJECT_ID": "2025-268Y", "EPOCH": "2025-12-14T01:36:52.892640", "MEAN_MOTION": 15.50567958, "ECCENTRICITY": 9.202e-05, "INCLINATION": 42.9993, "RA_OF_ASC_NODE": 113.3295, "ARG_OF_PERICENTER": 291.0176, "MEAN_ANOMALY": 69.0586, "EPHEMERIS_TYPE": 0, "CLASSIFICATION_TYPE": "U", "NORAD_CAT_ID": 66579, "ELEMENT_SET_NO": 999, "REV_AT_EPOCH": 483, "BSTAR": 0.0018580379, "MEAN_MOTION_DOT": 0.00110163, "MEAN_MOTION_DDOT": 0}, "tle": {"line1": "1 66579U 25268Y   25348.06727885  .00110163  00000+0  18580-2 0  9996", "line2": "2 66579  42.9993 113.3295 0000920 291.0176  69.0586 15.50567958  4832"}}, "geometry": {"type": "Point", "coordinates": [-124.33240762817798, 36.66156495091495]}}, {"type": "Feature", "properties": {"norad_id": 66580, "name": "STARLINK-35872", "group": "last-30-days", "lat": 35.86739133814467, "lon": -122.20684737726133, "alt_km": 409.9521098173327, "timestamp": "2025-12-14T20:40:30.515234+00:00", "meta": {"OBJECT_NAME": "STARLINK-35872", "OBJECT_ID": "2025-268Z", "EPOCH": "2025-12-14T01:36:22.894560", "MEAN_MOTION": 15.50568275, "ECCENTRICITY": 0.00015851, "INCLINATION": 43.0001, "RA_OF_ASC_NODE": 113.3277, "ARG_OF_PERICENTER": 281.2835, "MEAN_ANOMALY": 78.7847, "EPHEMERIS_TYPE": 0, "CLASSIFICATION_TYPE": "U", "NORAD_CAT_ID": 66580, "ELEMENT_SET_NO": 999, "REV_AT_EPOCH": 483, "BSTAR": 0.0015590245, "MEAN_MOTION_DOT": 0.00092168, "MEAN_MOTION_DDOT": 0}, "tle": {"line1": "1 66580U 25268Z   25348.06693165  .00092168  00000+0  15590-2 0  9993", "line2": "2 66580  43.0001 113.3277 0001585 281.2835  78.7847 15.50568275  4837"}}, "geometry": {"type": "Point", "coordinates": [-122.20684737726133, 35.86739133814467]}}, {"type": "Feature", "properties": {"norad_id": 66581, "name": "STARLINK-35744", "group": "last-30-days", "lat": 35.01343697779843, "lon": -120.07243509766194, "alt_km": 409.84729801100184, "timestamp": "2025-12-14T20:40:30.515244+00:00", "meta": {"OBJECT_NAME": "STARLINK-35744", "OBJECT_ID": "2025-268AA", "EPOCH": "2025-12-14T01:35:53.350080", "MEAN_MOTION": 15.50571375, "ECCENTRICITY": 0.00014263, "INCLINATION": 43.0001, "RA_OF_ASC_NODE": 113.3243, "ARG_OF_PERICENTER": 269.0032, "MEAN_ANOMALY": 91.0665, "EPHEMERIS_TYPE": 0, "CLASSIFICATION_TYPE": "U", "NORAD_CAT_ID": 66581, "ELEMENT_SET_NO": 999, "REV_AT_EPOCH": 483, "BSTAR": 0.0017111745, "MEAN_MOTION_DOT": 0.00101326, "MEAN_MOTION_DDOT": 0}, "tle": {"line1": "1 66581U 25268AA  25348.06658970  .00101326  00000+0  17112-2 0  9998", "line2": "2 66581  43.0001 113.3243 0001426 269.0032  91.0665 15.50571375  4839"}}, "geometry": {"type": "Point", "coordinates": [-120.07243509766194, 35.01343697779843]}}, {"type": "Feature", "properties": {"norad_id": 66582, "name": "STARLINK-35746", "group": "last-30-days", "lat": 34.14118237229632, "lon": -118.02510581546083, "alt_km": 410.0953704669673, "timestamp": "2025-12-14T20:40:30.515254+00:00", "meta": {"OBJECT_NAME": "STARLINK-35746", "OBJECT_ID": "2025-268AB", "EPOCH": "2025-12-14T01:35:23.567136", "MEAN_MOTION": 15.50571207, "ECCENTRICITY": 0.00016134, "INCLINATION": 43.0002, "RA_OF_ASC_NODE": 113.3208, "ARG_OF_PERICENTER": 265.7365, "MEAN_ANOMALY": 94.3311, "EPHEMERIS_TYPE": 0, "CLASSIFICATION_TYPE": "U", "NORAD_CAT_ID": 66582, "ELEMENT_SET_NO": 999, "REV_AT_EPOCH": 483, "BSTAR": 0.0015470518, "MEAN_MOTION_DOT": 0.00091458, "MEAN_MOTION_DDOT": 0}, "tle": {"line1": "1 66582U 25268AB  25348.06624499  .00091458  00000+0  15471-2 0  9998", "line2": "2 66582  43.0002 113.3208 0001613 265.7365  94.3311 15.50571207  4830"}}, "geometry": {"type": "Point", "coordinates": [-118.02510581546083, 34.14118237229632]}}, {"type": "Feature", "properties": {"norad_id": 66583, "name": "STARLINK-35941", "group": "last-30-days", "lat": 33.23031395313147, "lon": -116.00873495622062, "alt_km": 410.10858887420545, "timestamp": "2025-12-14T20:40:30.515263+00:00", "meta": {"OBJECT_NAME": "STARLINK-35941", "OBJECT_ID": "2025-268AC", "EPOCH": "2025-12-14T01:34:52.816512", "MEAN_MOTION": 15.50541302, "ECCENTRICITY": 0.00014647, "INCLINATION": 43.0001, "RA_OF_ASC_NODE": 113.3183, "ARG_OF_PERICENTER": 256.0512, "MEAN_ANOMALY": 104.0186, "EPHEMERIS_TYPE": 0, "CLASSIFICATION_TYPE": "U", "NORAD_CAT_ID": 66583, "ELEMENT_SET_NO": 999, "REV_AT_EPOCH": 483, "BSTAR": 0.0015935032, "MEAN_MOTION_DOT": 0.00094147, "MEAN_MOTION_DDOT": 0}, "tle": {"line1": "1 66583U 25268AC  25348.06588908  .00094147  00000+0  15935-2 0  9996", "line2": "2 66583  43.0001 113.3183 0001464 256.0512 104.0186 15.50541302  4835"}}, "geometry": {"type": "Point", "coordinates": [-116.00873495622062, 33.23031395313147]}}, {"type": "Feature", "properties": {"norad_id": 66584, "name": "STARLINK-35939", "group": "last-30-days", "lat": 32.291152278848045, "lon": -114.04455238940169, "alt_km": 410.35989390498435, "timestamp": "2025-12-14T20:40:30.515273+00:00", "meta": {"OBJECT_NAME": "STARLINK-35939", "OBJECT_ID": "2025-268AD", "EPOCH": "2025-12-14T01:34:24.553344", "MEAN_MOTION": 15.50564169, "ECCENTRICITY": 0.00013367, "INCLINATION": 42.9998, "RA_OF_ASC_NODE": 113.3141, "ARG_OF_PERICENTER": 287.5343, "MEAN_ANOMALY": 72.5371, "EPHEMERIS_TYPE": 0, "CLASSIFICATION_TYPE": "U", "NORAD_CAT_ID": 66584, "ELEMENT_SET_NO": 999, "REV_AT_EPOCH": 483, "BSTAR": 0.001585673, "MEAN_MOTION_DOT": 0.00093754, "MEAN_MOTION_DDOT": 0}, "tle": {"line1": "1 66584U 25268AD  25348.06556196  .00093754  00000+0  15857-2 0  9997", "line2": "2 66584  42.9998 113.3141 0001336 287.5343  72.5371 15.50564169  4833"}}, "geometry": {"type": "Point", "coordinates": [-114.04455238940169, 32.291152278848045]}}, {"type": "Feature", "properties": {"norad_id": 66585, "name": "STARLINK-35963", "group": "last-30-days", "lat": 31.313775202672517, "lon": -112.10332188737793, "alt_km": 410.54325589239033, "timestamp": "2025-12-14T20:40:30.515283+00:00", "meta": {"OBJECT_NAME": "STARLINK-35963", "OBJECT_ID": "2025-268AE", "EPOCH": "2025-12-14T01:33:54.771264", "MEAN_MOTION": 15.50567284, "ECCENTRICITY": 0.00014111, "INCLINATION": 42.9996, "RA_OF_ASC_NODE": 113.3117, "ARG_OF_PERICENTER": 281.6318, "MEAN_ANOMALY": 78.4384, "EPHEMERIS_TYPE": 0, "CLASSIFICATION_TYPE": "U", "NORAD_CAT_ID": 66585, "ELEMENT_SET_NO": 999, "REV_AT_EPOCH": 483, "BSTAR": 0.0014844244, "MEAN_MOTION_DOT": 0.00087687, "MEAN_MOTION_DDOT": 0}, "tle": {"line1": "1 66585U 25268AE  25348.06521726  .00087687  00000+0  14844-2 0  9992", "line2": "2 66585  42.9996 113.3117 0001411 281.6318  78.4384 15.50567284  4836"}}, "geometry": {"type": "Point", "coordinates": [-112.10332188737793, 31.313775202672517]}}, {"type": "Feature", "properties": {"norad_id": 66586, "name": "TJS-21", "group": "last-30-days", "lat": 59.057036038490615, "lon": -140.65303878955723, "alt_km": 34879.69819467294, "timestamp": "2025-12-14T20:40:30.515298+00:00", "meta": {"OBJECT_NAME": "TJS-21", "OBJECT_ID": "2025-269A", "EPOCH": "2025-12-10T17:31:22.184832", "MEAN_MOTION": 2.00567425, "ECCENTRICITY": 0.6805766, "INCLINATION": 63.269, "RA_OF_ASC_NODE": 162.5612, "ARG_OF_PERICENTER": 269.7806, "MEAN_ANOMALY": 18.6565, "EPHEMERIS_TYPE": 0, "CLASSIFICATION_TYPE": "U", "NORAD_CAT_ID": 66586, "ELEMENT_SET_NO": 999, "REV_AT_EPOCH": 39, "BSTAR": -0.044965385, "MEAN_MOTION_DOT": 1.083e-05, "MEAN_MOTION_DDOT": 0}, "tle": {"line1": "1 66586U 25269A   25344.73011788  .00001083  00000+0 -44965-1 0  9999", "line2": "2 66586  63.2690 162.5612 6805766 269.7806  18.6565  2.00567425   392"}}, "geometry": {"type": "Point", "coordinates": [-140.65303878955723, 59.057036038490615]}}, {"type": "Feature", "properties": {"norad_id": 66587, "name": "CZ-3B R/B", "group": "last-30-days", "lat": 26.88764407314381, "lon": -166.92940408443135, "alt_km": 36024.46088377915, "timestamp": "2025-12-14T20:40:30.515316+00:00", "meta": {"OBJECT_NAME": "CZ-3B R/B", "OBJECT_ID": "2025-269B", "EPOCH": "2025-12-12T18:47:24.789120", "MEAN_MOTION": 2.03336189, "ECCENTRICITY": 0.7518951, "INCLINATION": 51.347, "RA_OF_ASC_NODE": 169.6347, "ARG_OF_PERICENTER": 228.7177, "MEAN_ANOMALY": 37.1847, "EPHEMERIS_TYPE": 0, "CLASSIFICATION_TYPE": "U", "NORAD_CAT_ID": 66587, "ELEMENT_SET_NO": 999, "REV_AT_EPOCH": 45, "BSTAR": 0.00096662605, "MEAN_MOTION_DOT": 0.00067576, "MEAN_MOTION_DDOT": 1.09445e-06}, "tle": {"line1": "1 66587U 25269B   25346.78292580  .00067576  10944-5  96663-3 0  9994", "line2": "2 66587  51.3470 169.6347 7518951 228.7177  37.1847  2.03336189   454"}}, "geometry": {"type": "Point", "coordinates": [-166.92940408443135, 26.88764407314381]}}]}